NORAD_CAT_ID,OBJECT_NAME,OBJECT_TYPE,EPOCH,MEAN_MOTION,ECCENTRICITY,INCLINATION,RA_OF_ASC_NODE,ARG_OF_PERICENTER,MEAN_ANOMALY,BSTAR,MEAN_MOTION_DOT,MEAN_MOTION_DDOT,TLE_LINE0,TLE_LINE1,TLE_LINE2,SEMIMAJOR_AXIS,PERIOD,APOGEE,PERIGEE,DECAYED
51152.0,STARLINK-3364,PAYLOAD,2022-05-29 22:00:00,15.08796105,0.0002115,53.217,23.1604,51.4717,89.6077,-0.00042137,-6.979999999999999e-05,0.0,0 STARLINK-3364,1 51152U 22005BA  22149.91667824 -.00006980  00000-0 -42137-3 0  9999,2 51152  53.2170  23.1604 0002115  51.4717  89.6077 15.08796105 21411,6918.015,95.44,541.3430000000002,538.4159999999998,0.0
51152.0,STARLINK-3364,PAYLOAD,2022-05-30 14:00:01,15.08815108,0.0001948,53.2166,20.1662,55.7559,108.4141,0.0031715,0.00050514,0.0,0 STARLINK-3364,1 51152U 22005BA  22150.58334491  .00050514  00000-0  31715-2 0  9994,2 51152  53.2166  20.1662 0001948  55.7559 108.4141 15.08815108 21519,6917.956,95.439,541.169,538.474,0.0
51152.0,STARLINK-3364,PAYLOAD,2022-05-30 22:00:00,15.08843115,0.0002092,53.2164,18.6715,50.9283,124.83,-0.0002858,-4.834e-05,0.0,0 STARLINK-3364,1 51152U 22005BA  22150.91667824 -.00004834  00000-0 -28580-3 0  9993,2 51152  53.2164  18.6715 0002092  50.9283 124.8300 15.08843115  1303,6917.871,95.437,541.183,538.289,0.0
51152.0,STARLINK-3364,PAYLOAD,2022-05-31 06:00:02,15.08869728,0.0002021,53.2162,17.1744,49.3626,138.0519,-0.0042029,-0.00066615,0.0,0 STARLINK-3364,1 51152U 22005BA  22151.25002315 -.00066615  00000-0 -42029-2 0  9997,2 51152  53.2162  17.1744 0002021  49.3626 138.0519 15.08869728 21615,6917.79,95.436,541.053,538.256,0.0
51152.0,STARLINK-3364,PAYLOAD,2022-05-31 21:04:15,15.08830849,0.0002165,53.2181,14.3544,55.0468,305.0727,8.3265e-05,1.037e-05,0.0,0 STARLINK-3364,1 51152U 22005BA  22151.87795695  .00001037  00000-0  83265-4 0  9999,2 51152  53.2181  14.3544 0002165  55.0468 305.0727 15.08830849 20595,6917.908,95.438,541.271,538.276,0.0
51152.0,STARLINK-3364,PAYLOAD,2022-05-31 22:00:00,15.08835767,0.0002093,53.2162,14.1822,49.8347,160.7099,0.00026149,3.875e-05,0.0,0 STARLINK-3364,1 51152U 22005BA  22151.91667824  .00003875  00000-0  26149-3 0  9995,2 51152  53.2162  14.1822 0002093  49.8347 160.7099 15.08835767 21715,6917.893,95.438,541.206,538.31,0.0
51152.0,STARLINK-3364,PAYLOAD,2022-06-01 20:00:01,15.08874464,0.0002067,53.2165,10.0666,50.6825,101.7682,-0.0039521,-0.000627,0.0,0 STARLINK-3364,1 51152U 22005BA  22152.83334491 -.00062700  00000-0 -39521-2 0  9999,2 51152  53.2165  10.0666 0002067  50.6825 101.7682 15.08874464  1304,6917.775,95.435,541.07,538.21,0.0
51152.0,STARLINK-3364,PAYLOAD,2022-06-02 20:45:49,15.08841117,0.0001977,53.2174,5.4331,52.7742,307.343,4.6079e-05,4.45e-06,0.0,0 STARLINK-3364,1 51152U 22005BA  22153.86515188  .00000445  00000-0  46079-4 0  9991,2 51152  53.2174   5.4331 0001977  52.7742 307.3430 15.08841117 22005,6917.877,95.437,541.11,538.374,0.0
51152.0,STARLINK-3364,PAYLOAD,2022-06-03 01:31:58,15.08844294,0.0001947,53.2172,4.541,51.1819,308.9346,5.9799e-06,-1.93e-06,0.0,0 STARLINK-3364,1 51152U 22005BA  22154.06387080 -.00000193  00000-0  59799-5 0  9997,2 51152  53.2172   4.5410 0001947  51.1819 308.9346 15.08844294 20927,6917.8669999999975,95.437,541.0790000000002,538.385,0.0
51152.0,STARLINK-3364,PAYLOAD,2022-06-03 15:50:27,15.08840369,0.0002361,53.2166,1.8648,58.1134,302.0087,-0.00013391,-2.419e-05,0.0,0 STARLINK-3364,1 51152U 22005BA  22154.66003905 -.00002419  00000-0 -13391-3 0  9994,2 51152  53.2166   1.8648 0002361  58.1134 302.0087 15.08840369 22121,6917.879,95.438,541.378,538.111,0.0
51152.0,STARLINK-3364,PAYLOAD,2022-06-04 01:22:45,15.08849983,0.000217,53.2169,0.0811,55.3488,304.7709,-0.00018011,-3.155e-05,0.0,0 STARLINK-3364,1 51152U 22005BA  22155.05747408 -.00003155  00000-0 -18011-3 0  9993,2 51152  53.2169   0.0811 0002170  55.3488 304.7709 15.08849983 22183,6917.85,95.437,541.216,538.214,0.0
51152.0,STARLINK-3364,PAYLOAD,2022-06-04 06:08:54,15.08849429,0.0002139,53.2171,359.1891,55.3331,304.7863,-0.00012223,-2.234e-05,0.0,0 STARLINK-3364,1 51152U 22005BA  22155.25619153 -.00002234  00000-0 -12223-3 0  9996,2 51152  53.2171 359.1891 0002139  55.3331 304.7863 15.08849429 21101,6917.852,95.437,541.196,538.237,0.0
51152.0,STARLINK-3364,PAYLOAD,2022-06-05 22:00:00,15.08829201,0.0001942,53.2172,351.7362,49.6737,334.8481,0.0013976,0.00022018,0.0,0 STARLINK-3364,1 51152U 22005BA  22156.91667824  .00022018  00000-0  13976-2 0  9993,2 51152  53.2172 351.7362 0001942  49.6737 334.8481 15.08829201 22466,6917.913000000001,95.438,541.122,538.435,0.0
51152.0,STARLINK-3364,PAYLOAD,2022-06-06 14:00:01,15.08832229,0.0001709,53.217,348.7421,54.8604,352.8365,-7.5462e-05,-1.489e-05,0.0,0 STARLINK-3364,1 51152U 22005BA  22157.58334491 -.00001489  00000-0 -75462-4 0  9999,2 51152  53.2170 348.7421 0001709  54.8604 352.8365 15.08832229 22564,6917.904,95.438,540.951,538.587,0.0
51152.0,STARLINK-3364,PAYLOAD,2022-06-06 22:00:00,15.08811274,0.0001872,53.2168,347.2475,49.0663,10.2187,0.002069,0.00032768,0.0,0 STARLINK-3364,1 51152U 22005BA  22157.91667824  .00032768  00000-0  20690-2 0  9998,2 51152  53.2168 347.2475 0001872  49.0663  10.2187 15.08811274  1309,6917.968000000003,95.439,541.128,538.538,0.0
51152.0,STARLINK-3364,PAYLOAD,2022-06-07 05:41:16,15.08855408,0.0002021,53.2176,345.8075,61.9575,298.1621,-0.00034697,-5.809e-05,0.0,0 STARLINK-3364,1 51152U 22005BA  22158.23699393 -.00005809  00000-0 -34697-3 0  9991,2 51152  53.2176 345.8075 0002021  61.9575 298.1621 15.08855408 22669,6917.833000000001,95.437,541.096,538.3,0.0
51152.0,STARLINK-3364,PAYLOAD,2022-06-07 19:59:44,15.08841541,0.0001872,53.2183,343.131,53.0901,307.0263,4.705600000000001e-05,4.61e-06,0.0,0 STARLINK-3364,1 51152U 22005BA  22158.83315105  .00000461  00000-0  47056-4 0  9994,2 51152  53.2183 343.1310 0001872  53.0901 307.0263 15.08841541 21640,6917.876,95.437,541.036,538.446,0.0
51152.0,STARLINK-3364,PAYLOAD,2022-06-08 11:53:35,15.08846546,0.0001889,53.2181,340.1576,53.6757,306.441,5.7415e-05,6.26e-06,0.0,0 STARLINK-3364,1 51152U 22005BA  22159.49554576  .00000626  00000-0  57415-4 0  9997,2 51152  53.2181 340.1576 0001889  53.6757 306.4410 15.08846546 22853,6917.86,95.437,541.0319999999998,538.419,0.0
51152.0,STARLINK-3364,PAYLOAD,2022-06-08 18:15:08,15.08837596,0.0001837,53.2182,338.9676,53.5217,306.5944,4.7428e-05,4.67e-06,0.0,0 STARLINK-3364,1 51152U 22005BA  22159.76051164  .00000467  00000-0  47428-4 0  9998,2 51152  53.2182 338.9676 0001837  53.5217 306.5944 15.08837596 22895,6917.888000000001,95.438,541.024,538.482,0.0
51152.0,STARLINK-3364,PAYLOAD,2022-06-09 11:44:23,15.08832826,0.000189,53.218,335.6969,53.7518,306.3648,-2.7846e-05,-7.31e-06,0.0,0 STARLINK-3364,1 51152U 22005BA  22160.48915974 -.00000731  00000-0 -27846-4 0  9995,2 51152  53.2180 335.6969 0001890  53.7518 306.3648 15.08832826 21896,6917.901999999999,95.438,541.075,538.46,0.0
51152.0,STARLINK-3364,PAYLOAD,2022-06-09 18:05:55,15.08833359,0.0001884,53.2178,334.5075,54.1675,305.9492,-2.0664e-05,-6.17e-06,0.0,0 STARLINK-3364,1 51152U 22005BA  22160.75411999 -.00000617  00000-0 -20664-4 0  9997,2 51152  53.2178 334.5075 0001884  54.1675 305.9492 15.08833359 23044,6917.901,95.438,541.069,538.462,0.0
51152.0,STARLINK-3364,PAYLOAD,2022-06-09 21:16:42,15.08834162,0.0001814,53.2185,333.9126,54.356,305.7601,-6.8131e-05,-1.372e-05,0.0,0 STARLINK-3364,1 51152U 22005BA  22160.88660143 -.00001372  00000-0 -68131-4 0  9998,2 51152  53.2185 333.9126 0001814  54.3560 305.7601 15.08834162 21951,6917.898,95.438,541.018,538.508,0.0
51152.0,STARLINK-3364,PAYLOAD,2022-06-10 21:07:29,15.08832143,0.0001774999999999,53.2184,329.4533,51.2045,308.9105,9.1758e-06,-1.42e-06,0.0,0 STARLINK-3364,1 51152U 22005BA  22161.88020055 -.00000142  00000-0  91758-5 0  9996,2 51152  53.2184 329.4533 0001775  51.2045 308.9105 15.08832143 22101,6917.904,95.438,540.997,538.5409999999998,0.0
51152.0,STARLINK-3364,PAYLOAD,2022-06-11 20:58:16,15.08836929,0.000177,53.2175,324.9915,48.3299,311.7844,8.816799999999999e-05,1.115e-05,0.0,0 STARLINK-3364,1 51152U 22005BA  22162.87380026  .00001115  00000-0  88168-4 0  9993,2 51152  53.2175 324.9915 0001770  48.3299 311.7844 15.08836929 22252,6917.89,95.438,540.979,538.53,0.0
51152.0,STARLINK-3364,PAYLOAD,2022-06-12 03:19:48,15.08841328,0.0001768,53.2175,323.8025,49.4554,310.6592,8.551799999999999e-05,1.073e-05,0.0,0 STARLINK-3364,1 51152U 22005BA  22163.13875770  .00001073  00000-0  85518-4 0  9997,2 51152  53.2175 323.8025 0001768  49.4554 310.6592 15.08841328 23400,6917.876,95.437,540.964,538.518,0.0
51152.0,STARLINK-3364,PAYLOAD,2022-06-12 12:52:08,15.08793733,0.0002011,53.2179,322.019,57.5634,302.5552,0.00055159,8.49e-05,0.0,0 STARLINK-3364,1 51152U 22005BA  22163.53620529  .00008490  00000-0  55159-3 0  9998,2 51152  53.2179 322.0190 0002011  57.5634 302.5552 15.08793733 22354,6918.022,95.44,541.278,538.496,0.0
51152.0,STARLINK-3364,PAYLOAD,2022-06-12 19:13:40,15.08831104,0.0001827,53.2178,320.8294,52.8152,307.3007,2.0003e-05,3e-07,0.0,0 STARLINK-3364,1 51152U 22005BA  22163.80116777  .00000030  00000-0  20003-4 0  9996,2 51152  53.2178 320.8294 0001827  52.8152 307.3007 15.08831104 23502,6917.908,95.438,541.036,538.509,0.0
51152.0,STARLINK-3364,PAYLOAD,2022-06-13 03:10:36,15.08836522,0.0001869,53.218,319.3425,52.6656,307.4506,8.874200000000001e-05,1.124e-05,0.0,0 STARLINK-3364,1 51152U 22005BA  22164.13236343  .00001124  00000-0  88742-4 0  9994,2 51152  53.2180 319.3425 0001869  52.6656 307.4506 15.08836522 23556,6917.891,95.438,541.049,538.4630000000002,0.0
51152.0,STARLINK-3364,PAYLOAD,2022-06-13 12:42:54,15.08849181,0.0001776999999999,53.2179,317.5582,52.3962,307.7192,9.0392e-05,1.151e-05,0.0,0 STARLINK-3364,1 51152U 22005BA  22164.52979518  .00001151  00000-0  90392-4 0  9999,2 51152  53.2179 317.5582 0001777  52.3962 307.7192 15.08849181 22506,6917.852,95.437,540.947,538.488,0.0
